C/2014 R3 (PANSTARRS),e,90.9266,334.0961,113.4366,17751,0.0000004,0.99959028,0.0000,08/09.0067/2016,2000,g  6.5,4.0
# From MPC 91615
P/2014 R5 (Lemmon-PANSTARRS),e,1.0883,126.5609,213.7337,4.056254,0.1206469,0.41367416,304.2594,05/14.0/2021,2000,g 15.0,4.0
# From MPC 91616
P/2014 U4 (PANSTARRS),e,6.4292,11.8905,347.7404,3.505944,0.1501401,0.46487520,13.4362,05/14.0/2021,2000,g 18.0,4.0
# From MPC 95211
P/2014 V1 (PANSTARRS),e,22.5215,166.2004,177.5817,5.480885,0.0768118,0.53432491,176.8198,05/14.0/2021,2000,g 14.0,4.0
# From MPC 93586
P/2014 W1 (PANSTARRS),e,8.8380,246.2453,152.2191,4.462278,0.1045608,0.38875880,260.6647,05/14.0/2021,2000,g 15.5,4.0
# From MPC105542
P/2014 W4 (PANSTARRS),e,15.2746,33.3603,67.7961,6.597247,0.0581648,0.35215131,114.1352,05/14.0/2021,2000,g 11.0,4.0
# From MPC 93587
P/2014 W12 (Gibbs),e,8.5136,299.2904,36.8728,3.520058,0.1492380,0.52425299,354.5890,05/14.0/2021,2000,g 15.0,4.0
# From MPC 94281
P/2014 X1 (Elenin),e,26.0100,61.5129,33.9543,6.208990,0.0637049,0.70862024,148.1433,05/14.0/2021,2000,g 15.0,4.0
# From MPC 92275
P/2015 A3 (PANSTARRS),e,172.5309,277.1917,249.2701,7.808814,0.0451675,0.85114682,102.8646,05/14.0/2021,2000,g 20.0,4.0
# From MPC 99270
P/2015 B1 (PANSTARRS),e,18.0342,352.9962,188.8717,9.498353,0.0336691,0.36795133,69.6439,05/14.0/2021,2000,g  8.5,4.0
# From MPC108592
C/2015 B2 (PANSTARRS),e,104.9854,341.8430,284.7255,11973,0.0000008,0.99971835,0.0000,05/05.1352/2016,2000,g  9.5,4.0
# From MPC109141
P/2015 B4 (Lemmon-PANSTARRS),e,1.7602,266.0263,227.4457,8.529812,0.0395635,0.56013512,90.6536,05/14.0/2021,2000,g 11.0,4.0
# From MPC101096
P/2015 C1 (TOTAS-Gibbs),e,13.8952,348.8145,178.2896,6.583162,0.0583515,0.56027804,128.9164,05/14.0/2021,2000,g 12.5,4.0
# From MPC119995
C/2015 D3 (PANSTARRS),h,05/02.1433/2016,128.5495,157.0652,2.9342,1.003415,8.141808,2000,5.5,4.0
# From MPC109141
P/2015 D5 (Kowalski),e,20.5043,74.0601,39.8524,8.968166,0.0366985,0.48886571,95.4454,05/14.0/2021,2000,g  9.0,4.0
# From MPC 96866
P/2015 D6 (Lemmon-PANSTARRS),e,20.2013,45.9922,125.1612,7.143596,0.0516213,0.36172386,110.6109,05/14.0/2021,2000,g 10.5,4.0
# From MPC112390
C/2015 ER61 (PANSTARRS),e,6.3342,235.1302,68.3558,506.7908,0.0000864,0.99793987,0.0000,05/10.4988/2017,2000,g 11.0,2.0
# From MPEC 2018-BF5
C/2015 E61-B (PANSTARRS),e,6.3357,235.1654,68.4451,1501,0.0000169,0.99930327,0.0000,05/10.4765/2017,2000,g 13.5,2.0
# From MPC117068
C/2015 H2 (PANSTARRS),h,09/14.1500/2016,33.6498,350.6737,288.1244,1.005652,4.980558,2000,7.5,4.0
# From MPC100280
P/2015 HG16 (PANSTARRS),e,18.7840,58.6400,47.5115,4.748790,0.0952422,0.35182462,239.9176,05/14.0/2021,2000,g 12.5,4.0
# From MPC 95213
P/2015 K5 (PANSTARRS),e,39.9448,134.1751,106.3493,6.721813,0.0565554,0.55322667,122.7255,05/14.0/2021,2000,g 13.5,4.0
# From MPC107684
P/2015 M2 (PANSTARRS),e,3.9724,86.5846,225.5461,7.231131,0.0506868,0.18096565,105.0430,05/14.0/2021,2000,g  8.5,4.0
# From MPC112390
C/2015 O1 (PANSTARRS),h,02/19.7299/2018,127.2230,299.8509,89.6230,1.001222,3.728390,2000,6.5,4.0
# From MPC 99819
P/2015 P4 (PANSTARRS),e,8.7175,104.7535,280.5706,6.048884,0.0662508,0.58486111,128.5713,05/14.0/2021,2000,g 14.0,4.0
# From MPC102952
P/2015 PD229 (Cameron-ISON),e,2.0263,342.6327,352.4817,7.183671,0.0511899,0.32818033,107.3817,05/14.0/2021,2000,g 11.5,2.0
# From MPC 99819
P/2015 Q1 (Scotti),e,22.3838,202.8778,199.8347,3.474819,0.1521618,0.47816988,318.0649,05/14.0/2021,2000,g 14.0,4.0
# From MPC 96867
P/2015 Q2 (Pimentel),e,146.5037,228.4350,244.5122,7.349006,0.0494722,0.75072341,102.7640,05/14.0/2021,2000,g 15.5,4.0
# From MPC 98562
P/2015 R1 (PANSTARRS),e,22.6815,48.4126,300.4494,5.880247,0.0691211,0.63422081,148.3652,05/14.0/2021,2000,g 14.0,4.0
# From MPC 95734
P/2015 R2 (PANSTARRS),e,15.4818,168.5981,149.7738,4.487970,0.1036643,0.45290455,224.1242,05/14.0/2021,2000,g 14.5,4.0
# From MPC117068
C/2015 T2 (PANSTARRS),e,124.5538,51.0171,30.6548,1857,0.0000123,0.99626545,0.0000,05/18.2876/2017,2000,g  8.0,4.0
# From MPC 96280
P/2015 T3 (PANSTARRS),e,13.0937,120.5019,178.6330,4.326181,0.1095335,0.50818108,359.9227,12/21.0/2014,2000,g 14.0,4.0
# From MPC102953
C/2015 T4 (PANSTARRS),e,88.0119,251.8435,270.0751,79.61808,0.0013874,0.97110801,0.0000,06/16.6605/2016,2000,g 11.0,4.0
# From MPC102953
P/2015 TO19 (Lemmon-PANSTARRS),e,6.4995,321.6512,89.1192,4.555495,0.1013680,0.35830133,192.1585,05/14.0/2021,2000,g 14.0,4.0
# From MPC110080
P/2015 TP200 (LINEAR),e,8.7782,7.0030,82.5782,7.273366,0.0502459,0.53507853,83.4030,05/14.0/2021,2000,g 11.0,4.0
# From MPC101097
C/2015 TQ209 (LINEAR),e,11.3051,223.3826,282.1208,557.1279,0.0000750,0.99745872,0.0000,08/25.1090/2016,2000,g 10.5,4.0
# From MPC115881
C/2015 V1 (PANSTARRS),e,139.2245,197.1771,179.6219,2173,0.0000097,0.99803426,0.0000,12/16.7183/2017,2000,g  6.5,4.0
# From MPC112390
C/2015 V2 (Johnson),h,06/11.7383/2017,49.8457,69.9186,165.0010,1.001848,1.645292,2000,5.0,4.0
# From MPC104791
C/2015 V4 (PANSTARRS),e,60.7916,179.9420,306.9461,18.46459,0.0124221,0.70436590,21.3649,05/14.0/2021,2000,g  8.5,4.0
# From MPC115881
C/2015 VL62 (Lemmon-Yeung-PANSTARRS),h,08/27.8645/2017,165.8179,95.1168,128.8329,1.001314,2.719541,2000,8.0,4.0
# From MPC109142
C/2015 W1 (Gibbs),e,87.3665,114.3164,48.1588,2314,0.0000089,0.99903026,0.0000,05/13.3458/2016,2000,g 13.0,4.0
# From MPC101098
P/2015 W2 (Catalina),e,11.6071,294.2438,117.4903,7.294754,0.0500251,0.63409934,102.6496,05/14.0/2021,2000,g 13.0,4.0
# From MPC101098
P/2015 X1 (PANSTARRS),e,12.1516,161.7658,218.9146,3.632615,0.1423558,0.41906694,291.5116,05/14.0/2021,2000,g 16.0,4.0
# From MPEC 2020-AA5
C/2015 XY1 (Lemmon),h,04/27.2495/2018,148.8538,281.6161,196.2042,1.002185,7.923179,2000,5.5,4.0
# From MPC 97498
P/2015 X3 (PANSTARRS),e,24.3895,77.3054,306.6634,5.008614,0.0879281,0.43909985,185.1222,05/14.0/2021,2000,g 15.0,4.0
# From MPC119995
C/2015 X5 (PANSTARRS),h,12/28.9559/2017,124.3084,122.3442,27.6297,1.001318,6.796158,2000,7.5,4.0
# From MPC115881
P/2015 X6 (PANSTARRS),e,4.5647,106.9468,329.8598,2.753509,0.2157120,0.17265759,45.0609,05/14.0/2021,2000,g 16.0,4.0
# From MPC109143
C/2015 X7 (ATLAS),e,57.5594,139.9327,348.3489,6609,0.0000018,0.99944337,0.0000,07/29.0300/2016,2000,g  9.0,4.0
# From MPC109143
C/2015 Y1 (LINEAR),e,71.1639,135.8182,24.6418,237.5924,0.0002691,0.98941083,0.0000,05/13.1380/2016,2000,g 12.0,4.0
# From MPC119995
C/2016 A1 (PANSTARRS),h,11/22.2143/2017,121.2053,128.2069,10.2079,1.000881,5.321166,2000,6.0,4.0
# From MPC100282
P/2016 A2 (Christensen),e,26.4051,291.6163,141.4436,4.751969,0.0951467,0.27056686,205.3536,05/14.0/2021,2000,g 11.5,4.0
# From MPC115881
P/2016 A3 (PANSTARRS),e,8.5100,187.2474,341.0209,7.888837,0.0444820,0.38677973,65.6706,05/14.0/2021,2000,g 10.0,4.0
# From MPC102098
P/2016 A7 (PANSTARRS),e,16.6149,221.4927,352.6164,5.032675,0.0872983,0.56491369,166.4204,05/14.0/2021,2000,g 16.0,4.0
# From MPC106345
C/2016 A8 (LINEAR),e,148.2430,111.3526,130.4626,34.35869,0.0048938,0.94494665,8.4122,05/14.0/2021,2000,g 12.0,4.0
# From MPC107048
C/2016 B1 (NEOWISE),e,50.4408,232.0241,8.6855,436.2918,0.0001082,0.99262551,0.0000,12/04.3717/2016,2000,g  9.5,4.0
# From MPC109143
P/2016 BA14 (PANSTARRS),e,18.8936,180.5267,351.8878,3.025427,0.1872941,0.66522948,353.5717,05/14.0/2021,2000,g 21.0,4.0
# From MPC110494
C/2016 E1 (PANSTARRS),h,06/04.3951/2017,131.8833,233.0928,47.4790,1.006381,8.178258,2000,6.5,4.0
# From MPC102098
P/2016 G1 (PANSTARRS),e,10.9688,204.0283,111.1931,2.583437,0.2373598,0.21117928,12.5598,05/14.0/2021,2000,g 14.0,4.0
# From MPEC 2017-D91
P/2016 J1-A (PANSTARRS),e,14.3269,199.8114,46.9465,3.173332,0.1743535,0.22800448,310.7376,05/14.0/2021,2000,g 16.5,4.0
# From MPEC 2017-A77
P/2016 J1-B (PANSTARRS),e,14.3297,199.8162,46.8376,3.172961,0.1743841,0.22785520,310.8667,05/14.0/2021,2000,g 17.0,4.0
# From MPC104792
C/2016 K1 (LINEAR),h,07/13.6482/2016,90.9459,325.6113,18.3328,1.000281,2.296490,2000,13.0,4.0
# From MPC119995
C/2016 M1 (PANSTARRS),e,90.9777,92.2176,209.9131,11608,0.0000008,0.99980934,0.0000,08/10.4471/2018,2000,g  5.0,4.0
# From MPC115881
C/2016 N4 (MASTER),e,72.6307,353.9928,55.9417,3011,0.0000060,0.99893811,0.0000,09/16.7623/2017,2000,g  8.5,4.0
# From MPC119995
C/2016 N6 (PANSTARRS),e,105.8413,298.9854,162.6988,1336,0.0000202,0.99800505,0.0000,07/17.9547/2018,2000,g  7.0,4.0
# From MPC102099
P/2016 P1 (PANSTARRS),e,24.4563,319.5647,270.0956,3.193365,0.1727155,0.28908462,355.2919,05/14.0/2021,2000,g 15.0,4.0
# From MPC102099
C/2016 P4 (PANSTARRS),e,29.8803,320.7238,356.2572,418.5127,0.0001151,0.98590429,0.0000,10/18.7329/2016,2000,g 10.5,4.0
# From MPC118093
C/2016 Q2 (PANSTARRS),h,05/11.8828/2021,109.3883,322.2958,84.5285,1.000642,7.081855,2000,6.0,4.0
# From MPC102955
C/2016 Q4 (Kowalski),e,7.2552,271.2921,99.4633,16.94628,0.0141284,0.58179394,16.9791,05/14.0/2021,2000,g  7.0,4.0
# From MPC119995
C/2016 R2 (PANSTARRS),e,58.2427,80.5559,33.1460,502.8837,0.0000874,0.99482671,0.0000,05/09.0561/2018,2000,g  7.0,4.0
# From MPC102099
C/2016 R3 (Borisov),e,53.0286,78.7911,118.1636,197.5009,0.0003551,0.99770138,0.0000,10/09.9265/2016,2000,g 18.0,4.0
# From MPC109144
P/2016 R4 (Gibbs),e,10.8747,168.2671,174.0404,5.331601,0.0800604,0.47634040,140.6366,05/14.0/2021,2000,g 12.5,4.0
# From MPC105543
P/2016 S1 (PANSTARRS),e,94.6833,227.5618,273.2796,8.278293,0.0413802,0.70996808,62.8998,05/14.0/2021,2000,g 12.0,4.0
# From MPC105238
C/2016 T1 (Matheny),e,129.8509,56.3484,137.4905,125.3942,0.0007019,0.98161202,0.0000,02/01.4402/2017,2000,g 14.5,4.0
# From MPC107685
C/2016 T2 (Matheny),e,81.4022,339.1871,92.1962,99.28527,0.0009963,0.98083297,0.0000,12/29.5021/2016,2000,g 14.5,4.0
# From MPC110082
C/2016 T3 (PANSTARRS),e,22.6852,271.7208,194.6210,130.5421,0.0006608,0.97972869,0.0000,09/06.4177/2017,2000,g 10.5,4.0
# From MPC103847
C/2016 U1 (NEOWISE),h,01/13.7314/2017,46.2743,61.5811,162.8105,1.000405,0.323855,2000,17.0,4.0
# From MPC106345
C/2016 VZ18 (PANSTARRS),e,23.9823,98.9215,36.3962,161.4207,0.0004806,0.99433608,0.0000,03/05.2557/2017,2000,g 19.5,4.0
# From MPC106345
